ALOS-2                  
1 39766U 14029A   26092.05209440  .00001861  00000+0  25604-3 0  9995
2 39766  97.9196 190.3096 0001974  99.9401 260.2034 14.79465602640321
YAOGAN-29               
1 41038U 15069A   26092.20711277 -.00000006  00000+0  58894-5 0  9998
2 41038  98.0106 120.6963 0000123 340.6780  19.4429 14.83019567559364
ASTRO-H (HITOMI)        
1 41337U 16012A   26091.63669912  .00003587  00000+0  20868-3 0  9997
2 41337  30.9992 208.4476 0009659 202.6657 157.3555 15.10152335555709
HXMT (HUIYAN)           
1 42758U 17034A   26092.14247515  .00006712  00000+0  33377-3 0  9990
2 42758  43.0135 246.2542 0031260  20.7790 339.4322 15.17762520486107
SAOCOM 1A               
1 43641U 18076A   26092.11914972 -.00000616  00000+0 -70831-4 0  9990
2 43641  97.8896 279.9612 0001357  86.2004 273.9364 14.82143150404831
H-2A R/B                
1 43682U 18084L   26092.16094733  .00029051  00000+0  66741-3 0  9999
2 43682  98.8695 314.5813 0023451 302.7525  57.1458 15.42371244409392
SAOCOM 1B               
1 46265U 20059A   26092.15040036  .00001079  00000+0  14213-3 0  9997
2 46265  97.8885 279.0890 0001467  85.6521 274.4860 14.82147862302223
CSS (TIANHE)            
1 48274U 21035A   26091.36022109  .00024066  00000+0  27286-3 0  9992
2 48274  41.4670  70.0996 0003721  85.9086 274.2179 15.61804306281152
COSMOS 2550             
1 48865U 21056A   26091.47039022  .00005639  00000+0  17705-3 0  9995
2 48865  67.1445 331.9738 0008328 269.3207  90.6993 15.33839536266954
CZ-2C R/B               
1 52794U 22058K   26091.58083286  .00043661  00000+0  59540-3 0  9997
2 52794  50.1881 200.3863 0041330 299.0451  60.6383 15.55999580213698
CZ-2C R/B               
1 54039U 22132E   26091.93297411  .00049340  00000+0  51772-3 0  9999
2 54039  97.2951  95.9934 0016612  13.9860 346.1855 15.64056213194007
GSLV R/B                
1 54149U 22138AN  26092.18591674  .00004355  00000+0  37479-3 0  9998
2 54149  87.3852 158.4955 0023879  69.3238 291.0551 14.96925091187448
